CCSDS_OMM_VERS = 2.0
CREATION_DATE  = 
ORIGINATOR     = 

OBJECT_NAME    = STARLINK-36350
OBJECT_ID      = 2026-016M
CENTER_NAME    = EARTH
REF_FRAME      = TEME
TIME_SYSTEM    = UTC
MEAN_ELEMENT_THEORY = SGP/SGP4

EPOCH          = 2026-02-06T14:00:01.999872
MEAN_MOTION    = 15.80760640
ECCENTRICITY   = .0000912
INCLINATION    = 97.2792
RA_OF_ASC_NODE = 96.4528
ARG_OF_PERICENTER = 82.8307
MEAN_ANOMALY   = 191.8854

EPHEMERIS_TYPE = 0
CLASSIFICATION_TYPE = U
NORAD_CAT_ID   = 67572
ELEMENT_SET_NO = 999
REV_AT_EPOCH   = 293
BSTAR          = .76818354E-3
MEAN_MOTION_DOT = .149164E-2
MEAN_MOTION_DDOT = 0

CCSDS_OMM_VERS = 2.0
CREATION_DATE  = 
ORIGINATOR     = 

OBJECT_NAME    = STARLINK-36588
OBJECT_ID      = 2026-016N
CENTER_NAME    = EARTH
REF_FRAME      = TEME
TIME_SYSTEM    = UTC
MEAN_ELEMENT_THEORY = SGP/SGP4

EPOCH          = 2026-02-06T14:00:01.999872
MEAN_MOTION    = 15.80906109
ECCENTRICITY   = .00013662
INCLINATION    = 97.2783
RA_OF_ASC_NODE = 96.4557
ARG_OF_PERICENTER = 80.3451
MEAN_ANOMALY   = 202.6828

EPHEMERIS_TYPE = 0
CLASSIFICATION_TYPE = U
NORAD_CAT_ID   = 67573
ELEMENT_SET_NO = 999
REV_AT_EPOCH   = 309
BSTAR          = -.44244124E-3
MEAN_MOTION_DOT = -.84423E-3
MEAN_MOTION_DDOT = 0

CCSDS_OMM_VERS = 2.0
CREATION_DATE  = 
ORIGINATOR     = 

OBJECT_NAME    = STARLINK-36594
OBJECT_ID      = 2026-016P
CENTER_NAME    = EARTH
REF_FRAME      = TEME
TIME_SYSTEM    = UTC
MEAN_ELEMENT_THEORY = SGP/SGP4

EPOCH          = 2026-02-06T14:00:01.999872
MEAN_MOTION    = 15.81043243
ECCENTRICITY   = .00016256
INCLINATION    = 97.2779
RA_OF_ASC_NODE = 96.4566
ARG_OF_PERICENTER = 101.5600
MEAN_ANOMALY   = 186.4690

EPHEMERIS_TYPE = 0
CLASSIFICATION_TYPE = U
NORAD_CAT_ID   = 67574
ELEMENT_SET_NO = 999
REV_AT_EPOCH   = 309
BSTAR          = -.20887023E-2
MEAN_MOTION_DOT = -.387063E-2
MEAN_MOTION_DDOT = 0

CCSDS_OMM_VERS = 2.0
CREATION_DATE  = 
ORIGINATOR     = 

OBJECT_NAME    = STARLINK-36400
OBJECT_ID      = 2026-016Q
CENTER_NAME    = EARTH
REF_FRAME      = TEME
TIME_SYSTEM    = UTC
MEAN_ELEMENT_THEORY = SGP/SGP4

EPOCH          = 2026-02-06T14:00:01.999872
MEAN_MOTION    = 15.81311667
ECCENTRICITY   = .00012547
INCLINATION    = 97.2785
RA_OF_ASC_NODE = 96.4601
ARG_OF_PERICENTER = 100.2229
MEAN_ANOMALY   = 193.3088

EPHEMERIS_TYPE = 0
CLASSIFICATION_TYPE = U
NORAD_CAT_ID   = 67575
ELEMENT_SET_NO = 999
REV_AT_EPOCH   = 298
BSTAR          = -.3567517E-2
MEAN_MOTION_DOT = -.649625E-2
MEAN_MOTION_DDOT = 0

CCSDS_OMM_VERS = 2.0
CREATION_DATE  = 
ORIGINATOR     = 

OBJECT_NAME    = STARLINK-36591
OBJECT_ID      = 2026-016R
CENTER_NAME    = EARTH
REF_FRAME      = TEME
TIME_SYSTEM    = UTC
MEAN_ELEMENT_THEORY = SGP/SGP4

EPOCH          = 2026-02-06T14:00:01.999872
MEAN_MOTION    = 15.81597392
ECCENTRICITY   = .00015609
INCLINATION    = 97.2779
RA_OF_ASC_NODE = 96.4618
ARG_OF_PERICENTER = 100.0494
MEAN_ANOMALY   = 199.1862

EPHEMERIS_TYPE = 0
CLASSIFICATION_TYPE = U
NORAD_CAT_ID   = 67576
ELEMENT_SET_NO = 999
REV_AT_EPOCH   = 304
BSTAR          = -.53333788E-2
MEAN_MOTION_DOT = -.950665E-2
MEAN_MOTION_DDOT = 0

CCSDS_OMM_VERS = 2.0
CREATION_DATE  = 
ORIGINATOR     = 

OBJECT_NAME    = STARLINK-36590
OBJECT_ID      = 2026-016S
CENTER_NAME    = EARTH
REF_FRAME      = TEME
TIME_SYSTEM    = UTC
MEAN_ELEMENT_THEORY = SGP/SGP4

EPOCH          = 2026-02-06T14:00:01.999872
MEAN_MOTION    = 15.81900328
ECCENTRICITY   = .00014015
INCLINATION    = 97.2776
RA_OF_ASC_NODE = 96.4636
ARG_OF_PERICENTER = 89.3552
MEAN_ANOMALY   = 215.0706

EPHEMERIS_TYPE = 0
CLASSIFICATION_TYPE = U
NORAD_CAT_ID   = 67577
ELEMENT_SET_NO = 999
REV_AT_EPOCH   = 304
BSTAR          = -.7137119E-2
MEAN_MOTION_DOT = -.1270362E-1
MEAN_MOTION_DDOT = 0

CCSDS_OMM_VERS = 2.0
CREATION_DATE  = 
ORIGINATOR     = 

OBJECT_NAME    = STARLINK-36613
OBJECT_ID      = 2026-016T
CENTER_NAME    = EARTH
REF_FRAME      = TEME
TIME_SYSTEM    = UTC
MEAN_ELEMENT_THEORY = SGP/SGP4

EPOCH          = 2026-02-06T14:00:01.999872
MEAN_MOTION    = 15.82243024
ECCENTRICITY   = .00014678
INCLINATION    = 97.2775
RA_OF_ASC_NODE = 96.4655
ARG_OF_PERICENTER = 87.2730
MEAN_ANOMALY   = 223.3594

EPHEMERIS_TYPE = 0
CLASSIFICATION_TYPE = U
NORAD_CAT_ID   = 67578
ELEMENT_SET_NO = 999
REV_AT_EPOCH   = 304
BSTAR          = -.86784843E-2
MEAN_MOTION_DOT = -.1560594E-1
MEAN_MOTION_DDOT = 0

CCSDS_OMM_VERS = 2.0
CREATION_DATE  = 
ORIGINATOR     = 

OBJECT_NAME    = STARLINK-36571
OBJECT_ID      = 2026-016U
CENTER_NAME    = EARTH
REF_FRAME      = TEME
TIME_SYSTEM    = UTC
MEAN_ELEMENT_THEORY = SGP/SGP4

EPOCH          = 2026-02-06T14:00:01.999872
MEAN_MOTION    = 15.82596202
ECCENTRICITY   = .00013885
INCLINATION    = 97.2776
RA_OF_ASC_NODE = 96.4702
ARG_OF_PERICENTER = 107.2185
MEAN_ANOMALY   = 211.3760

EPHEMERIS_TYPE = 0
CLASSIFICATION_TYPE = U
NORAD_CAT_ID   = 67579
ELEMENT_SET_NO = 999
REV_AT_EPOCH   = 304
BSTAR          = -.90611326E-2
MEAN_MOTION_DOT = -.1644168E-1
MEAN_MOTION_DDOT = 0

CCSDS_OMM_VERS = 2.0
CREATION_DATE  = 
ORIGINATOR     = 

OBJECT_NAME    = STARLINK-36612
OBJECT_ID      = 2026-016V
CENTER_NAME    = EARTH
REF_FRAME      = TEME
TIME_SYSTEM    = UTC
MEAN_ELEMENT_THEORY = SGP/SGP4

EPOCH          = 2026-02-06T14:00:01.999872
MEAN_MOTION    = 15.82803930
ECCENTRICITY   = .00011945
INCLINATION    = 97.2775
RA_OF_ASC_NODE = 96.4719
ARG_OF_PERICENTER = 86.9825
MEAN_ANOMALY   = 237.4885

EPHEMERIS_TYPE = 0
CLASSIFICATION_TYPE = U
NORAD_CAT_ID   = 67580
ELEMENT_SET_NO = 999
REV_AT_EPOCH   = 304
BSTAR          = -.89594969E-2
MEAN_MOTION_DOT = -.1641889E-1
MEAN_MOTION_DDOT = 0

CCSDS_OMM_VERS = 2.0
CREATION_DATE  = 
ORIGINATOR     = 

OBJECT_NAME    = STARLINK-36632
OBJECT_ID      = 2026-016W
CENTER_NAME    = EARTH
REF_FRAME      = TEME
TIME_SYSTEM    = UTC
MEAN_ELEMENT_THEORY = SGP/SGP4

EPOCH          = 2026-02-06T14:00:01.999872
MEAN_MOTION    = 15.83459082
ECCENTRICITY   = .00011568
INCLINATION    = 97.2771
RA_OF_ASC_NODE = 96.4786
ARG_OF_PERICENTER = 92.0483
MEAN_ANOMALY   = 249.0047

EPHEMERIS_TYPE = 0
CLASSIFICATION_TYPE = U
NORAD_CAT_ID   = 67581
ELEMENT_SET_NO = 999
REV_AT_EPOCH   = 304
BSTAR          = -.88554273E-2
MEAN_MOTION_DOT = -.1669715E-1
MEAN_MOTION_DDOT = 0

CCSDS_OMM_VERS = 2.0
CREATION_DATE  = 
ORIGINATOR     = 

OBJECT_NAME    = STARLINK-36609
OBJECT_ID      = 2026-016X
CENTER_NAME    = EARTH
REF_FRAME      = TEME
TIME_SYSTEM    = UTC
MEAN_ELEMENT_THEORY = SGP/SGP4

EPOCH          = 2026-02-06T14:00:01.999872
MEAN_MOTION    = 15.83668398
ECCENTRICITY   = .00012119
INCLINATION    = 97.2769
RA_OF_ASC_NODE = 96.4806
ARG_OF_PERICENTER = 69.5653
MEAN_ANOMALY   = 277.1086

EPHEMERIS_TYPE = 0
CLASSIFICATION_TYPE = U
NORAD_CAT_ID   = 67582
ELEMENT_SET_NO = 999
REV_AT_EPOCH   = 304
BSTAR          = -.87393892E-2
MEAN_MOTION_DOT = -.1665101E-1
MEAN_MOTION_DDOT = 0

CCSDS_OMM_VERS = 2.0
CREATION_DATE  = 
ORIGINATOR     = 

OBJECT_NAME    = STARLINK-36577
OBJECT_ID      = 2026-016Y
CENTER_NAME    = EARTH
REF_FRAME      = TEME
TIME_SYSTEM    = UTC
MEAN_ELEMENT_THEORY = SGP/SGP4

EPOCH          = 2026-02-06T14:00:01.999872
MEAN_MOTION    = 15.83123552
ECCENTRICITY   = .00013478
INCLINATION    = 97.2765
RA_OF_ASC_NODE = 96.4738
ARG_OF_PERICENTER = 92.6759
MEAN_ANOMALY   = 239.5693

EPHEMERIS_TYPE = 0
CLASSIFICATION_TYPE = U
NORAD_CAT_ID   = 67583
ELEMENT_SET_NO = 999
REV_AT_EPOCH   = 304
BSTAR          = -.90491665E-2
MEAN_MOTION_DOT = -.1678169E-1
MEAN_MOTION_DDOT = 0

