STARLINK-36350          
1 67572U 26016M   26037.58335648  .00149164  00000+0  76818-3 0  9999
2 67572  97.2792  96.4528 0000912  82.8307 191.8854 15.80760640  2936
STARLINK-36588          
1 67573U 26016N   26037.58335648 -.00084423  00000+0 -44244-3 0  9996
2 67573  97.2783  96.4557 0001366  80.3451 202.6828 15.80906109  3098
STARLINK-36594          
1 67574U 26016P   26037.58335648 -.00387063  00000+0 -20887-2 0  9999
2 67574  97.2779  96.4566 0001625 101.5600 186.4690 15.81043243  3092
STARLINK-36400          
1 67575U 26016Q   26037.58335648 -.00649625  00000+0 -35675-2 0  9996
2 67575  97.2785  96.4601 0001254 100.2229 193.3088 15.81311667  2984
STARLINK-36591          
1 67576U 26016R   26037.58335648 -.00950665  00000+0 -53334-2 0  9998
2 67576  97.2779  96.4618 0001560 100.0494 199.1862 15.81597392  3041
STARLINK-36590          
1 67577U 26016S   26037.58335648 -.01270362  00000+0 -71371-2 0  9990
2 67577  97.2776  96.4636 0001401  89.3552 215.0706 15.81900328  3049
STARLINK-36613          
1 67578U 26016T   26037.58335648 -.01560594  00000+0 -86785-2 0  9995
2 67578  97.2775  96.4655 0001467  87.2730 223.3594 15.82243024  3048
STARLINK-36571          
1 67579U 26016U   26037.58335648 -.01644168  00000+0 -90611-2 0  9999
2 67579  97.2776  96.4702 0001388 107.2185 211.3760 15.82596202  3043
STARLINK-36612          
1 67580U 26016V   26037.58335648 -.01641889  00000+0 -89595-2 0  9997
2 67580  97.2775  96.4719 0001194  86.9825 237.4885 15.82803930  3047
STARLINK-36632          
1 67581U 26016W   26037.58335648 -.01669715  00000+0 -88554-2 0  9990
2 67581  97.2771  96.4786 0001156  92.0483 249.0047 15.83459082  3049
STARLINK-36609          
1 67582U 26016X   26037.58335648 -.01665101  00000+0 -87394-2 0  9997
2 67582  97.2769  96.4806 0001211  69.5653 277.1086 15.83668398  3047
STARLINK-36577          
1 67583U 26016Y   26037.58335648 -.01678169  00000+0 -90492-2 0  9999
2 67583  97.2765  96.4738 0001347  92.6759 239.5693 15.83123552  3046
